PROGRESS-MS 32          
1 65586U 25204A   25321.19111821  .00017975  00000+0  32502-3 0  9993
2 65586  51.6331 268.9357 0004176  79.7820 280.3640 15.49748902   273
CYGNUS NG-23            
1 65616U 25208A   25321.19111821  .00017975  00000+0  32502-3 0  9991
2 65616  51.6331 268.9357 0004176  79.7820 280.3640 15.49748902   222
DRAGONFLY               
1 65729U 98067XH  25321.04551231  .00142893  00000+0  14719-2 0  9993
2 65729  51.6300 266.4665 0004939 134.2997 225.8403 15.63847935  9139
1998-067XJ              
1 65730U 98067XJ  25321.08955095  .00637016  00000+0  29766-2 0  9999
2 65730  51.6234 263.7366 0011659 133.2265 226.9712 15.80942147  9178
1998-067XK              
1 65731U 98067XK  25321.09523142  .00100437  00000+0  11803-2 0  9990
2 65731  51.6309 266.8014 0005777 114.4814 245.6782 15.60625077  9130
RSP-03                  
1 65732U 98067XL  25321.13502295  .00123990  00000+0  13664-2 0  9998
2 65732  51.6296 266.3140 0006532 117.5844 242.5814 15.62183616  9152
GHS-01                  
1 65733U 98067XM  25321.15581984  .00174815  00000+0  17046-2 0  9993
2 65733  51.6300 265.7055 0005916 137.8324 222.3128 15.65111329  9160
YOTSUBA-KULOVER         
1 65941U 98067XN  25321.11034882  .00078359  00000+0  11167-2 0  9994
2 65941  51.6312 268.3984 0002474  81.0207 279.1065 15.55617620  5867
BOTAN                   
1 65942U 98067XP  25321.02797974  .00105692  00000+0  14084-2 0  9995
2 65942  51.6307 268.5992 0004695  89.3927 270.7602 15.57284856  5856
E-KAGAKU-1              
1 65943U 98067XQ  25321.10995073  .00076646  00000+0  10930-2 0  9997
2 65943  51.6317 268.3969 0004128  72.2267 287.9174 15.55601978  5860
HRC MONOBLOCK CAMERA    
1 66052U 98067XR  25321.42644470  .00045607  00000+0  74716-3 0  9992
2 66052  51.6317 267.5065 0004786  81.6152 278.5380 15.52002484  4900
HTV-X1                  
1 66174U 25241A   25321.19111821  .00017975  00000+0  32502-3 0  9998
2 66174  51.6331 268.9357 0004176  79.7820 280.3640 15.49748902  1458
