CCSDS_OMM_VERS = 2.0
CREATION_DATE  = 
ORIGINATOR     = 

OBJECT_NAME    = PROGRESS-MS 32
OBJECT_ID      = 2025-204A
CENTER_NAME    = EARTH
REF_FRAME      = TEME
TIME_SYSTEM    = UTC
MEAN_ELEMENT_THEORY = SGP/SGP4

EPOCH          = 2025-11-17T04:35:12.613344
MEAN_MOTION    = 15.49748902
ECCENTRICITY   = .00041761
INCLINATION    = 51.6331
RA_OF_ASC_NODE = 268.9357
ARG_OF_PERICENTER = 79.7820
MEAN_ANOMALY   = 280.3640

EPHEMERIS_TYPE = 0
CLASSIFICATION_TYPE = U
NORAD_CAT_ID   = 65586
ELEMENT_SET_NO = 999
REV_AT_EPOCH   = 27
BSTAR          = .32501715E-3
MEAN_MOTION_DOT = .17975E-3
MEAN_MOTION_DDOT = 0

CCSDS_OMM_VERS = 2.0
CREATION_DATE  = 
ORIGINATOR     = 

OBJECT_NAME    = CYGNUS NG-23
OBJECT_ID      = 2025-208A
CENTER_NAME    = EARTH
REF_FRAME      = TEME
TIME_SYSTEM    = UTC
MEAN_ELEMENT_THEORY = SGP/SGP4

EPOCH          = 2025-11-17T04:35:12.613344
MEAN_MOTION    = 15.49748902
ECCENTRICITY   = .00041761
INCLINATION    = 51.6331
RA_OF_ASC_NODE = 268.9357
ARG_OF_PERICENTER = 79.7820
MEAN_ANOMALY   = 280.3640

EPHEMERIS_TYPE = 0
CLASSIFICATION_TYPE = U
NORAD_CAT_ID   = 65616
ELEMENT_SET_NO = 999
REV_AT_EPOCH   = 22
BSTAR          = .32501715E-3
MEAN_MOTION_DOT = .17975E-3
MEAN_MOTION_DDOT = 0

CCSDS_OMM_VERS = 2.0
CREATION_DATE  = 
ORIGINATOR     = 

OBJECT_NAME    = DRAGONFLY
OBJECT_ID      = 1998-067XH
CENTER_NAME    = EARTH
REF_FRAME      = TEME
TIME_SYSTEM    = UTC
MEAN_ELEMENT_THEORY = SGP/SGP4

EPOCH          = 2025-11-17T01:05:32.263584
MEAN_MOTION    = 15.63847935
ECCENTRICITY   = .00049398
INCLINATION    = 51.6300
RA_OF_ASC_NODE = 266.4665
ARG_OF_PERICENTER = 134.2997
MEAN_ANOMALY   = 225.8403

EPHEMERIS_TYPE = 0
CLASSIFICATION_TYPE = U
NORAD_CAT_ID   = 65729
ELEMENT_SET_NO = 999
REV_AT_EPOCH   = 913
BSTAR          = .14718809E-2
MEAN_MOTION_DOT = .142893E-2
MEAN_MOTION_DDOT = 0

CCSDS_OMM_VERS = 2.0
CREATION_DATE  = 
ORIGINATOR     = 

OBJECT_NAME    = 1998-067XJ
OBJECT_ID      = 1998-067XJ
CENTER_NAME    = EARTH
REF_FRAME      = TEME
TIME_SYSTEM    = UTC
MEAN_ELEMENT_THEORY = SGP/SGP4

EPOCH          = 2025-11-17T02:08:57.202080
MEAN_MOTION    = 15.80942147
ECCENTRICITY   = .00116598
INCLINATION    = 51.6234
RA_OF_ASC_NODE = 263.7366
ARG_OF_PERICENTER = 133.2265
MEAN_ANOMALY   = 226.9712

EPHEMERIS_TYPE = 0
CLASSIFICATION_TYPE = U
NORAD_CAT_ID   = 65730
ELEMENT_SET_NO = 999
REV_AT_EPOCH   = 917
BSTAR          = .29765877E-2
MEAN_MOTION_DOT = .637016E-2
MEAN_MOTION_DDOT = 0

CCSDS_OMM_VERS = 2.0
CREATION_DATE  = 
ORIGINATOR     = 

OBJECT_NAME    = 1998-067XK
OBJECT_ID      = 1998-067XK
CENTER_NAME    = EARTH
REF_FRAME      = TEME
TIME_SYSTEM    = UTC
MEAN_ELEMENT_THEORY = SGP/SGP4

EPOCH          = 2025-11-17T02:17:07.994688
MEAN_MOTION    = 15.60625077
ECCENTRICITY   = .0005777
INCLINATION    = 51.6309
RA_OF_ASC_NODE = 266.8014
ARG_OF_PERICENTER = 114.4814
MEAN_ANOMALY   = 245.6782

EPHEMERIS_TYPE = 0
CLASSIFICATION_TYPE = U
NORAD_CAT_ID   = 65731
ELEMENT_SET_NO = 999
REV_AT_EPOCH   = 913
BSTAR          = .11803033E-2
MEAN_MOTION_DOT = .100437E-2
MEAN_MOTION_DDOT = 0

CCSDS_OMM_VERS = 2.0
CREATION_DATE  = 
ORIGINATOR     = 

OBJECT_NAME    = RSP-03
OBJECT_ID      = 1998-067XL
CENTER_NAME    = EARTH
REF_FRAME      = TEME
TIME_SYSTEM    = UTC
MEAN_ELEMENT_THEORY = SGP/SGP4

EPOCH          = 2025-11-17T03:14:25.982880
MEAN_MOTION    = 15.62183616
ECCENTRICITY   = .00065329
INCLINATION    = 51.6296
RA_OF_ASC_NODE = 266.3140
ARG_OF_PERICENTER = 117.5844
MEAN_ANOMALY   = 242.5814

EPHEMERIS_TYPE = 0
CLASSIFICATION_TYPE = U
NORAD_CAT_ID   = 65732
ELEMENT_SET_NO = 999
REV_AT_EPOCH   = 915
BSTAR          = .1366444E-2
MEAN_MOTION_DOT = .12399E-2
MEAN_MOTION_DDOT = 0

CCSDS_OMM_VERS = 2.0
CREATION_DATE  = 
ORIGINATOR     = 

OBJECT_NAME    = GHS-01
OBJECT_ID      = 1998-067XM
CENTER_NAME    = EARTH
REF_FRAME      = TEME
TIME_SYSTEM    = UTC
MEAN_ELEMENT_THEORY = SGP/SGP4

EPOCH          = 2025-11-17T03:44:22.834176
MEAN_MOTION    = 15.65111329
ECCENTRICITY   = .00059166
INCLINATION    = 51.6300
RA_OF_ASC_NODE = 265.7055
ARG_OF_PERICENTER = 137.8324
MEAN_ANOMALY   = 222.3128

EPHEMERIS_TYPE = 0
CLASSIFICATION_TYPE = U
NORAD_CAT_ID   = 65733
ELEMENT_SET_NO = 999
REV_AT_EPOCH   = 916
BSTAR          = .17046219E-2
MEAN_MOTION_DOT = .174815E-2
MEAN_MOTION_DDOT = 0

CCSDS_OMM_VERS = 2.0
CREATION_DATE  = 
ORIGINATOR     = 

OBJECT_NAME    = YOTSUBA-KULOVER
OBJECT_ID      = 1998-067XN
CENTER_NAME    = EARTH
REF_FRAME      = TEME
TIME_SYSTEM    = UTC
MEAN_ELEMENT_THEORY = SGP/SGP4

EPOCH          = 2025-11-17T02:38:54.138048
MEAN_MOTION    = 15.55617620
ECCENTRICITY   = .00024749
INCLINATION    = 51.6312
RA_OF_ASC_NODE = 268.3984
ARG_OF_PERICENTER = 81.0207
MEAN_ANOMALY   = 279.1065

EPHEMERIS_TYPE = 0
CLASSIFICATION_TYPE = U
NORAD_CAT_ID   = 65941
ELEMENT_SET_NO = 999
REV_AT_EPOCH   = 586
BSTAR          = .11166532E-2
MEAN_MOTION_DOT = .78359E-3
MEAN_MOTION_DDOT = 0

CCSDS_OMM_VERS = 2.0
CREATION_DATE  = 
ORIGINATOR     = 

OBJECT_NAME    = BOTAN
OBJECT_ID      = 1998-067XP
CENTER_NAME    = EARTH
REF_FRAME      = TEME
TIME_SYSTEM    = UTC
MEAN_ELEMENT_THEORY = SGP/SGP4

EPOCH          = 2025-11-17T00:40:17.449536
MEAN_MOTION    = 15.57284856
ECCENTRICITY   = .00046956
INCLINATION    = 51.6307
RA_OF_ASC_NODE = 268.5992
ARG_OF_PERICENTER = 89.3927
MEAN_ANOMALY   = 270.7602

EPHEMERIS_TYPE = 0
CLASSIFICATION_TYPE = U
NORAD_CAT_ID   = 65942
ELEMENT_SET_NO = 999
REV_AT_EPOCH   = 585
BSTAR          = .14083563E-2
MEAN_MOTION_DOT = .105692E-2
MEAN_MOTION_DDOT = 0

CCSDS_OMM_VERS = 2.0
CREATION_DATE  = 
ORIGINATOR     = 

OBJECT_NAME    = E-KAGAKU-1
OBJECT_ID      = 1998-067XQ
CENTER_NAME    = EARTH
REF_FRAME      = TEME
TIME_SYSTEM    = UTC
MEAN_ELEMENT_THEORY = SGP/SGP4

EPOCH          = 2025-11-17T02:38:19.743072
MEAN_MOTION    = 15.55601978
ECCENTRICITY   = .00041284
INCLINATION    = 51.6317
RA_OF_ASC_NODE = 268.3969
ARG_OF_PERICENTER = 72.2267
MEAN_ANOMALY   = 287.9174

EPHEMERIS_TYPE = 0
CLASSIFICATION_TYPE = U
NORAD_CAT_ID   = 65943
ELEMENT_SET_NO = 999
REV_AT_EPOCH   = 586
BSTAR          = .1093044E-2
MEAN_MOTION_DOT = .76646E-3
MEAN_MOTION_DDOT = 0

CCSDS_OMM_VERS = 2.0
CREATION_DATE  = 
ORIGINATOR     = 

OBJECT_NAME    = HRC MONOBLOCK CAMERA
OBJECT_ID      = 1998-067XR
CENTER_NAME    = EARTH
REF_FRAME      = TEME
TIME_SYSTEM    = UTC
MEAN_ELEMENT_THEORY = SGP/SGP4

EPOCH          = 2025-11-17T10:14:04.822080
MEAN_MOTION    = 15.52002484
ECCENTRICITY   = .0004786
INCLINATION    = 51.6317
RA_OF_ASC_NODE = 267.5065
ARG_OF_PERICENTER = 81.6152
MEAN_ANOMALY   = 278.5380

EPHEMERIS_TYPE = 0
CLASSIFICATION_TYPE = U
NORAD_CAT_ID   = 66052
ELEMENT_SET_NO = 999
REV_AT_EPOCH   = 490
BSTAR          = .74716E-3
MEAN_MOTION_DOT = .45607E-3
MEAN_MOTION_DDOT = 0

CCSDS_OMM_VERS = 2.0
CREATION_DATE  = 
ORIGINATOR     = 

OBJECT_NAME    = HTV-X1
OBJECT_ID      = 2025-241A
CENTER_NAME    = EARTH
REF_FRAME      = TEME
TIME_SYSTEM    = UTC
MEAN_ELEMENT_THEORY = SGP/SGP4

EPOCH          = 2025-11-17T04:35:12.613344
MEAN_MOTION    = 15.49748902
ECCENTRICITY   = .00041761
INCLINATION    = 51.6331
RA_OF_ASC_NODE = 268.9357
ARG_OF_PERICENTER = 79.7820
MEAN_ANOMALY   = 280.3640

EPHEMERIS_TYPE = 0
CLASSIFICATION_TYPE = U
NORAD_CAT_ID   = 66174
ELEMENT_SET_NO = 999
REV_AT_EPOCH   = 145
BSTAR          = .32501715E-3
MEAN_MOTION_DOT = .17975E-3
MEAN_MOTION_DDOT = 0

